OBJECTID,ADDRESS,CITY,COUNTY,OWNER,PHONE,SWING,AGENCY,CONTACT,LAST_UPDT,XY_SOURCE,XY_ISSUES,ATT_SOURCE,ATT_ISSUES,COMMENTS,FACILITYID,FACILITY,ZIP_CODE,OPERATOR,DEEMED,LIC_TYPE,ACUTE,ACUTE_REHAB,CRITICAL_ACCESS,CHEM_DEPEND,FSED,PSYCH_GENERAL,PSYCH_GERIATRIC,PSYCH_ADULT,PSYCH_ADOLESCENT,PSYCH_CHILD,TB,REHAB,LICENSE_EXP,DATECREATED,DATEMODIFIED
"1",901 Westlake Dr,Columbia,Adair,T J Health Columbia Inc. ,270-384-4753,Y,COT/GIS,KIM ANNESS,2020/03/18 00:00:00+00,GPS LOCATIONS FOR FRONT DOOR COLLECTED BY CHFS STATE HEALTH OPERATIONS CENTER,,CHFS OFFICE OF INSPECTOR GENERAL,,,"100001",T J Health Columbia,"42728",Neil Thornbury,Y,ACUTE,"49","0","0","0",N,"25","0","0","0","0","0","0",2020/07/31 00:00:00+00,2019/10/16 00:00:00+00,2020/03/18 00:00:00+00
"2",456 Burnley Rd,Scottsville,Allen,B G Warren County Comm  Hosp Corp,270-622-2800,Y,COT/GIS,KIM ANNESS,2020/03/18 00:00:00+00,GPS LOCATIONS FOR FRONT DOOR COLLECTED BY CHFS STATE HEALTH OPERATIONS CENTER,,CHFS OFFICE OF INSPECTOR GENERAL,,,"600076",The Medical Center At Scottsville,"42164",Eric Hagan,Y,CAH,"0","0","25","0",N,"0","0","0","0","0","0","0",2021/02/28 00:00:00+00,2019/10/16 00:00:00+00,2020/03/18 00:00:00+00
"3",3604 W Cumberland Ave,Middlesboro,Bell,Appalachian Regional Healthcare Inc,606-242-1100,Y,COT/GIS,KIM ANNESS,2020/03/18 00:00:00+00,GPS LOCATIONS FOR FRONT DOOR COLLECTED BY CHFS STATE HEALTH OPERATIONS CENTER,,CHFS OFFICE OF INSPECTOR GENERAL,,,"100019",Middlesboro ARH Hospital,"40965",Michael Slusher,Y,ACUTE,"96","0","0","0",N,"0","0","0","0","0","0","0",2021/01/31 00:00:00+00,2019/10/16 00:00:00+00,2020/03/18 00:00:00+00
"4",850 Riverview Ave,Pineville,Bell,"Pineville Medical Center, LLC",606-337-3051,N,COT/GIS,KIM ANNESS,2020/03/18 00:00:00+00,GPS LOCATIONS FOR FRONT DOOR COLLECTED BY CHFS STATE HEALTH OPERATIONS CENTER,,CHFS OFFICE OF INSPECTOR GENERAL,,,100020A,"Pineville Community Health Center, Inc","40977",Scott Madon,N,ACUTE,"108","0","0","0",N,"0","12","0","0","0","0","0",2020/08/31 00:00:00+00,2019/10/16 00:00:00+00,2020/03/18 00:00:00+00
"5",5940 Merchants St,Florence,Boone,Vibra Rehabilitation Hospital of Florence LLC,859-426-2400,N,COT/GIS,KIM ANNESS,2020/03/18 00:00:00+00,GPS LOCATIONS FOR FRONT DOOR COLLECTED BY CHFS STATE HEALTH OPERATIONS CENTER,,CHFS OFFICE OF INSPECTOR GENERAL,,,"100928",Gateway Rehabilitation Hospital,"41042",Frank Schneider,Y,REHAB,"0","0","0","0",N,"0","0","0","0","0","0","40",2020/12/31 00:00:00+00,2019/10/16 00:00:00+00,2020/03/18 00:00:00+00
"6",4900 Houston Rd,Florence,Boone,"Saint Elizabeth Medical Center, Inc.",859-2121-5220,N,COT/GIS,KIM ANNESS,2020/03/18 00:00:00+00,GPS LOCATIONS FOR FRONT DOOR COLLECTED BY CHFS STATE HEALTH OPERATIONS CENTER,,CHFS OFFICE OF INSPECTOR GENERAL,,,"100273",St. Elizabeth Florence,"41042",Bruno Giacomuzzi,Y,ACUTE,"231","0","0","0",N,"0","0","0","0","0","0","0",2020/10/31 00:00:00+00,2019/10/16 00:00:00+00,2020/03/18 00:00:00+00
"7",8 Linville Dr b,Paris,Bourbon,"Bourbon Community, Llc",859-987-3600,Y,COT/GIS,KIM ANNESS,2020/03/18 00:00:00+00,GPS LOCATIONS FOR FRONT DOOR COLLECTED BY CHFS STATE HEALTH OPERATIONS CENTER,,CHFS OFFICE OF INSPECTOR GENERAL,,,"100023",Bourbon Community Hospital,"40361",Matt Smith,Y,ACUTE,"25","0","0","0",N,"25","0","8","0","0","0","0",2020/05/31 00:00:00+00,2019/10/16 00:00:00+00,2020/03/18 00:00:00+00
"8",2201 Lexington Av,Ashland,Boyd,Ashland Hospital Corporation,606-408-4401,N,COT/GIS,KIM ANNESS,2020/03/18 00:00:00+00,GPS LOCATIONS FOR FRONT DOOR COLLECTED BY CHFS STATE HEALTH OPERATIONS CENTER,,CHFS OFFICE OF INSPECTOR GENERAL,,,"100958",Kings Daughters Medical Center,"41101",Kristie Whitlatch,Y,ACUTE,"401","0","0","0",N,"27","0","0","0","0","0","27",2021/02/28 00:00:00+00,2019/10/16 00:00:00+00,2020/03/18 00:00:00+00
"9",217 S 3rd St,Danville,Boyle,Ephraim Mcdowell Regional Med Ctr Inc,859-239-2409,Y,COT/GIS,KIM ANNESS,2020/03/18 00:00:00+00,GPS LOCATIONS FOR FRONT DOOR COLLECTED BY CHFS STATE HEALTH OPERATIONS CENTER,,CHFS OFFICE OF INSPECTOR GENERAL,,,"100034",Ephraim Mcdowell Reg Medical Center,"40422",Daniel McKay,Y,ACUTE,"159","0","0","0",N,"38","0","0","0","0","0","0",2020/03/31 00:00:00+00,2019/10/16 00:00:00+00,2020/03/18 00:00:00+00
"10",540 Jett Drive,Jackson,Breathitt,Jackson Hospital Corporation,606-666-6000,Y,COT/GIS,KIM ANNESS,2020/03/18 00:00:00+00,GPS LOCATIONS FOR FRONT DOOR COLLECTED BY CHFS STATE HEALTH OPERATIONS CENTER,,CHFS OFFICE OF INSPECTOR GENERAL,,,"100620",Kentucky River Medical Center,"41339",John Ballard,Y,ACUTE,"55","0","0","0",N,"0","0","0","0","0","0","0",2021/01/31 00:00:00+00,2019/10/16 00:00:00+00,2020/03/18 00:00:00+00
"11",1011 US-60 Business,Hardinsburg,Breckinridge,"Breckinridge Health, Inc",270-756-7000,Y,COT/GIS,KIM ANNESS,2020/03/18 00:00:00+00,GPS LOCATIONS FOR FRONT DOOR COLLECTED BY CHFS STATE HEALTH OPERATIONS CENTER,,CHFS OFFICE OF INSPECTOR GENERAL,,,"600070",Breckinridge Memorial Hospital,"40143",Angela Portman,Y,CAH,"0","0","25","0",N,"0","0","0","0","0","0","0",2020/06/30 00:00:00+00,2019/10/16 00:00:00+00,2020/03/18 00:00:00+00
"12",100 Medical Center Dr,Princeton,Caldwell,"Caldwell County Hospital, Inc.",270-365-0300,Y,COT/GIS,KIM ANNESS,2020/03/18 00:00:00+00,GPS LOCATIONS FOR FRONT DOOR COLLECTED BY CHFS STATE HEALTH OPERATIONS CENTER,,CHFS OFFICE OF INSPECTOR GENERAL,,,"600072",Caldwell Medical Center,"42445",William Hartley,Y,CAH,"0","0","25","0",N,"0","0","0","0","0","0","0",2021/01/31 00:00:00+00,2019/10/16 00:00:00+00,2020/03/18 00:00:00+00
"13",803 Poplar St,Murray,Calloway,Murray Calloway Co Public Hospital Corp,270-762-1100,N,COT/GIS,KIM ANNESS,2020/03/18 00:00:00+00,GPS LOCATIONS FOR FRONT DOOR COLLECTED BY CHFS STATE HEALTH OPERATIONS CENTER,,CHFS OFFICE OF INSPECTOR GENERAL,,,"100053",Murray Calloway County Hospital,"42071",Jerome Penner,Y,ACUTE,"128","0","0","0",N,"12","0","0","0","0","0","12",2020/06/30 00:00:00+00,2019/10/16 00:00:00+00,2020/03/18 00:00:00+00
"14",85 N Grand Ave,Fort Thomas,Campbell,"Saint Elizabeth Medical Center, Inc.",859-572-3100,N,COT/GIS,KIM ANNESS,2020/03/18 00:00:00+00,GPS LOCATIONS FOR FRONT DOOR COLLECTED BY CHFS STATE HEALTH OPERATIONS CENTER,,CHFS OFFICE OF INSPECTOR GENERAL,,,"100059",St. Elizabeth Ft. Thomas,"41075",John Mitchell,Y,ACUTE,"178","0","0","0",N,"0","0","0","0","0","0","0",2020/10/31 00:00:00+00,2019/10/16 00:00:00+00,2020/03/18 00:00:00+00
"15",111 Majave Terrace,Carrollton,Carroll,CCMH Corporation,502-732-4321,Y,COT/GIS,KIM ANNESS,2020/03/18 00:00:00+00,GPS LOCATIONS FOR FRONT DOOR COLLECTED BY CHFS STATE HEALTH OPERATIONS CENTER,,CHFS OFFICE OF INSPECTOR GENERAL,,,"600061",Carroll County Memorial Hospital,"41008",Kim Dees,N,CAH,"0","0","25","0",N,"0","0","0","0","0","0","0",2020/07/31 00:00:00+00,2019/10/16 00:00:00+00,2020/03/18 00:00:00+00
"16",187 Wolford Ave,Liberty,Casey,Casey Co. Hsp. District,606-787-6275,Y,COT/GIS,KIM ANNESS,2020/03/18 00:00:00+00,GPS LOCATIONS FOR FRONT DOOR COLLECTED BY CHFS STATE HEALTH OPERATIONS CENTER,,CHFS OFFICE OF INSPECTOR GENERAL,,,"600060",Casey County Hospital,"42539",Rex Tungate,Y,CAH,"0","0","24","0",N,"0","0","0","0","0","0","0",2020/11/30 00:00:00+00,2019/10/16 00:00:00+00,2020/03/18 00:00:00+00
"17",270 Walton Way,Hopkinsville,Christian,"ABS Lincs KY, Inc.",270-886-1919,N,COT/GIS,KIM ANNESS,2020/03/18 00:00:00+00,GPS LOCATIONS FOR FRONT DOOR COLLECTED BY CHFS STATE HEALTH OPERATIONS CENTER,,CHFS OFFICE OF INSPECTOR GENERAL,,,"100597",Cumberland Hall,"42240",Matt Ours,Y,PSY,"0","0","0","0",N,"97","0","0","0","0","0","0",2020/04/30 00:00:00+00,2019/10/16 00:00:00+00,2020/03/18 00:00:00+00
"18", 320 W 18th St,Hopkinsville,Christian,Jennie Stuart Medical Center Inc,270-887-0100,N,COT/GIS,KIM ANNESS,2020/03/18 00:00:00+00,GPS LOCATIONS FOR FRONT DOOR COLLECTED BY CHFS STATE HEALTH OPERATIONS CENTER,,CHFS OFFICE OF INSPECTOR GENERAL,,,"100068",Jennie Stuart Medical Center Inc,"42240",Eric Lee,Y,ACUTE,"182","0","0","0",N,"0","12","0","0","0","0","0",2020/03/31 00:00:00+00,2019/10/16 00:00:00+00,2020/03/18 00:00:00+00
"19",2400 Russellville Rd,Hopkinsville,Christian,Commonwealth of KY,270-889-6025,N,COT/GIS,KIM ANNESS,2020/03/18 00:00:00+00,GPS LOCATIONS FOR FRONT DOOR COLLECTED BY CHFS STATE HEALTH OPERATIONS CENTER,,CHFS OFFICE OF INSPECTOR GENERAL,,,"100072",Western State Hospital,"42240",Roger Westfall,Y,PSY,"0","0","0","0",N,"495","0","0","0","0","0","0",2020/06/30 00:00:00+00,2019/10/16 00:00:00+00,2020/03/18 00:00:00+00
"20",175 Hospital Dr,Winchester,Clark,"Kentucky Hospital, LLC",859-737-8559,Y,COT/GIS,KIM ANNESS,2020/03/18 00:00:00+00,GPS LOCATIONS FOR FRONT DOOR COLLECTED BY CHFS STATE HEALTH OPERATIONS CENTER,,CHFS OFFICE OF INSPECTOR GENERAL,,,"100073",Clark Regional Medical Center,"40391",Aphreikah DuHaney-West,Y,ACUTE,"54","0","0","0",N,"0","0","0","0","0","0","0",2021/02/28 00:00:00+00,2019/10/16 00:00:00+00,2020/03/18 00:00:00+00
"21",210 Marie Langdon,Manchester,Clay,Memorial Hospital Inc,606-598-5104,N,COT/GIS,KIM ANNESS,2020/03/18 00:00:00+00,GPS LOCATIONS FOR FRONT DOOR COLLECTED BY CHFS STATE HEALTH OPERATIONS CENTER,,CHFS OFFICE OF INSPECTOR GENERAL,,,"100075",Advent Health Manchester,"40962",Chris Self,Y,ACUTE,"49","0","0","0",N,"0","0","0","0","0","0","0",2021/02/28 00:00:00+00,2019/10/16 00:00:00+00,2020/03/18 00:00:00+00
"22",723 Burkesville Rd,Albany,Clinton,"The Medical Center at Clinton County, Inc. ",606-387-6421,Y,COT/GIS,KIM ANNESS,2020/03/18 00:00:00+00,GPS LOCATIONS FOR FRONT DOOR COLLECTED BY CHFS STATE HEALTH OPERATIONS CENTER,,CHFS OFFICE OF INSPECTOR GENERAL,,,"100078",The Medical Center at Albany,"42602",Eric Hagan,N,ACUTE,"42","0","0","0",N,"0","0","0","0","0","0","0",2020/10/31 00:00:00+00,2019/10/16 00:00:00+00,2020/03/18 00:00:00+00
"23",520 W Gum St,Marion,Crittenden,Crittenden Community Hospital LLC,270-965-5281,Y,COT/GIS,KIM ANNESS,2020/03/18 00:00:00+00,GPS LOCATIONS FOR FRONT DOOR COLLECTED BY CHFS STATE HEALTH OPERATIONS CENTER,,CHFS OFFICE OF INSPECTOR GENERAL,,,"100080",Crittenden Community Hospital,"42064",Don Buchanan,Y,ACUTE,"48","0","0","0",N,"0","0","0","0","0","0","0",2020/12/31 00:00:00+00,2019/10/16 00:00:00+00,2020/03/18 00:00:00+00
"24",299 Glasgow Rd,Burkesville,Cumberland,"Cumberland County Hospital Association, Inc.",270-864-2511,Y,COT/GIS,KIM ANNESS,2020/03/18 00:00:00+00,GPS LOCATIONS FOR FRONT DOOR COLLECTED BY CHFS STATE HEALTH OPERATIONS CENTER,,CHFS OFFICE OF INSPECTOR GENERAL,,,"600068",Cumberland County Hospital,"42717",Terry Nichols  ,N,CAH,"0","0","25","0",N,"0","0","0","0","0","0","0",2020/09/30 00:00:00+00,2019/10/16 00:00:00+00,2020/03/18 00:00:00+00
"25",1201 Pleasant Valley Rd,Owensboro,‎Daviess,"Owensboro Health, Inc.",270-417-2000,N,COT/GIS,KIM ANNESS,2020/03/18 00:00:00+00,GPS LOCATIONS FOR FRONT DOOR COLLECTED BY CHFS STATE HEALTH OPERATIONS CENTER,,CHFS OFFICE OF INSPECTOR GENERAL,,,"100092",Owensboro Health Regional Hospital,"42303",Greg Strahan,Y,ACUTE,"415","0","0","0",N,"12","0","0","0","0","0","20",2020/09/30 00:00:00+00,2019/10/16 00:00:00+00,2020/03/18 00:00:00+00
"26",1100 Walnut St # 46,Owensboro,Daviess,Green River Regional Mh Mr Board Inc,270-689-6800,N,COT/GIS,KIM ANNESS,2020/03/18 00:00:00+00,GPS LOCATIONS FOR FRONT DOOR COLLECTED BY CHFS STATE HEALTH OPERATIONS CENTER,,CHFS OFFICE OF INSPECTOR GENERAL,,,"100586",River Valley Behavioral Health,"42301",Dave Gerkin,N,PSY,"0","0","0","0",N,"80","0","0","0","0","0","0",2020/06/30 00:00:00+00,2019/10/16 00:00:00+00,2020/03/18 00:00:00+00
"27",60 Mercy Ct,Irvine,Estill,"Mercy Health - Marcum & Wallace Hospital, LLC",606-723-2115,Y,COT/GIS,KIM ANNESS,2020/03/18 00:00:00+00,GPS LOCATIONS FOR FRONT DOOR COLLECTED BY CHFS STATE HEALTH OPERATIONS CENTER,,CHFS OFFICE OF INSPECTOR GENERAL,,,"600052",Marcum And Wallace Memorial Hospital,"40336",Susan Starling,N,CAH,"0","0","25","0",N,"0","0","0","0","0","0","0",2020/07/31 00:00:00+00,2019/10/16 00:00:00+00,2020/03/18 00:00:00+00
"28",1740 Nicholasville Rd,Lexington,Fayette,Baptist Healthcare System Inc,859-260-6104,N,COT/GIS,KIM ANNESS,2020/03/18 00:00:00+00,GPS LOCATIONS FOR FRONT DOOR COLLECTED BY CHFS STATE HEALTH OPERATIONS CENTER,,CHFS OFFICE OF INSPECTOR GENERAL,,,"100101",Baptist Health Lexington,"40503",William G. Sisson,Y,ACUTE,"391","0","0","0",N,"0","0","0","0","0","0","0",2020/07/31 00:00:00+00,2019/10/16 00:00:00+00,2020/03/18 00:00:00+00
"29",2050 Versailles Rd,Lexington,Fayette,"Healthsouth Cardinal Hill Rehabilitation Hospital, Inc.",859-254-5701,N,COT/GIS,KIM ANNESS,2020/03/18 00:00:00+00,GPS LOCATIONS FOR FRONT DOOR COLLECTED BY CHFS STATE HEALTH OPERATIONS CENTER,,CHFS OFFICE OF INSPECTOR GENERAL,,,"100100",Cardinal Hill Rehabilitation Hospital,"40504",Tara Diebling,N,REHAB,"0","0","0","0",N,"0","0","0","0","0","0","158",2020/11/30 00:00:00+00,2019/10/16 00:00:00+00,2020/03/18 00:00:00+00
"30",1350 Bull Lea Rd,Lexington,Fayette,Commonwealth Of Kentucky,859-246-8000,N,COT/GIS,KIM ANNESS,2020/03/18 00:00:00+00,GPS LOCATIONS FOR FRONT DOOR COLLECTED BY CHFS STATE HEALTH OPERATIONS CENTER,,CHFS OFFICE OF INSPECTOR GENERAL,,,"100102",Eastern State Hospital,"40511",Carrie Rudzik,Y,PSY,"0","0","0","0",N,"195","0","0","0","0","0","0",2020/08/31 00:00:00+00,2019/10/16 00:00:00+00,2020/03/18 00:00:00+00
"31",1 St Joseph Dr,Lexington,Fayette,"Saint Joseph Health System, Inc.",859-313-1000,N,COT/GIS,KIM ANNESS,2020/03/18 00:00:00+00,GPS LOCATIONS FOR FRONT DOOR COLLECTED BY CHFS STATE HEALTH OPERATIONS CENTER,,CHFS OFFICE OF INSPECTOR GENERAL,,,"100117",Saint Joseph Hospital,"40504",Bruce Tassin,Y,ACUTE,"433","0","0","0",Y,"0","0","0","0","0","0","0",2020/07/31 00:00:00+00,2019/10/16 00:00:00+00,2020/03/18 00:00:00+00
"32",150 N Eagle Creek Dr,Lexington,Fayette,"Saint Joseph Health System, Inc.",859-967-5000,N,COT/GIS,KIM ANNESS,2020/03/18 00:00:00+00,GPS LOCATIONS FOR FRONT DOOR COLLECTED BY CHFS STATE HEALTH OPERATIONS CENTER,,CHFS OFFICE OF INSPECTOR GENERAL,,,"100538",Saint Joseph East,"40509",Eric Gilliam,Y,ACUTE,"217","0","0","0",N,"0","0","0","0","0","0","0",2020/12/31 00:00:00+00,2019/10/16 00:00:00+00,2020/03/18 00:00:00+00
"33",3050 Rio Dosa Dr,Lexington,Fayette,"Uhs Of Ridge, Inc",859-269-2325,N,COT/GIS,KIM ANNESS,2020/03/18 00:00:00+00,GPS LOCATIONS FOR FRONT DOOR COLLECTED BY CHFS STATE HEALTH OPERATIONS CENTER,,CHFS OFFICE OF INSPECTOR GENERAL,,,"100534",The Ridge Behavioral Health System,"40509",Nina Eisner,Y,PSY,"0","0","0","20",N,"90","0","0","0","0","0","0",2020/04/30 00:00:00+00,2019/10/16 00:00:00+00,2020/03/18 00:00:00+00
"34",800 Rose Street Pavilion H,Lexington,Fayette,Commonwealth Of Ky,859-323-5211,N,COT/GIS,KIM ANNESS,2020/03/18 00:00:00+00,GPS LOCATIONS FOR FRONT DOOR COLLECTED BY CHFS STATE HEALTH OPERATIONS CENTER,,CHFS OFFICE OF INSPECTOR GENERAL,,,"100121",University of KY Hospital,"40508",Colleen Swartz,Y,ACUTE,"724","0","0","0",N,"0","0","0","0","0","0","0",2020/05/31 00:00:00+00,2019/10/16 00:00:00+00,2020/03/18 00:00:00+00
"35",310 S Limestone,Lexington,Fayette,"University of Kentucky, an agency of the Commonwealth of KY",859-323-5211,N,COT/GIS,KIM ANNESS,2020/03/18 00:00:00+00,GPS LOCATIONS FOR FRONT DOOR COLLECTED BY CHFS STATE HEALTH OPERATIONS CENTER,,CHFS OFFICE OF INSPECTOR GENERAL,,,"100104",UK HealthCare Good Samaritan Hospital,"40508",Colleen Swartz,Y,ACUTE,"190","0","0","0",N,"31","0","0","0","0","0","0",2020/11/30 00:00:00+00,2019/10/16 00:00:00+00,2020/03/18 00:00:00+00
"36",55 Foundation Dr,Flemingsburg,Fleming,"Fleming Medical Center, LLC",606-849-2351,Y,COT/GIS,KIM ANNESS,2020/03/18 00:00:00+00,GPS LOCATIONS FOR FRONT DOOR COLLECTED BY CHFS STATE HEALTH OPERATIONS CENTER,,CHFS OFFICE OF INSPECTOR GENERAL,,,"100123",Fleming County Hospital,"41041",Brian  Springate,Y,CAH,"25","0","0","0",N,"0","0","0","0","0","0","0",2020/08/31 00:00:00+00,2019/10/16 00:00:00+00,2020/03/18 00:00:00+00
"37",5000 KY-321,Prestonsburg,Floyd,Highlands Hospital Corporation,606-886-8511,Y,COT/GIS,KIM ANNESS,2020/03/18 00:00:00+00,GPS LOCATIONS FOR FRONT DOOR COLLECTED BY CHFS STATE HEALTH OPERATIONS CENTER,,CHFS OFFICE OF INSPECTOR GENERAL,,,"100124",Highlands Regional Medical Center,"41653",Harold Warman,Y,ACUTE,"151","0","0","0",N,"0","11","12","0","0","0","0",2021/01/31 00:00:00+00,2019/10/16 00:00:00+00,2020/03/18 00:00:00+00
"38",9879 KY-122,McDowell,Floyd,Appalachian Regional Healthcare Inc,606-377-3400,Y,COT/GIS,KIM ANNESS,2020/03/18 00:00:00+00,GPS LOCATIONS FOR FRONT DOOR COLLECTED BY CHFS STATE HEALTH OPERATIONS CENTER,,CHFS OFFICE OF INSPECTOR GENERAL,,,"600082",McDowell ARH Hospital,"41647",Russ Barker,Y,CAH,"0","0","25","0",N,"0","0","0","0","0","0","0",2020/08/31 00:00:00+00,2019/10/16 00:00:00+00,2020/03/18 00:00:00+00
"39",11203 Main St,Martin,Floyd,"ARH Mary Breckinridge Health Services, Inc. ",606-285-6401,Y,COT/GIS,KIM ANNESS,2020/03/18 00:00:00+00,GPS LOCATIONS FOR FRONT DOOR COLLECTED BY CHFS STATE HEALTH OPERATIONS CENTER,,CHFS OFFICE OF INSPECTOR GENERAL,,,"600056",ARH Our Lady of the Way,"41649",Kathy Stumbo,Y,CAH,"0","0","25","0",N,"0","0","0","0","0","0","0",2020/05/31 00:00:00+00,2019/10/16 00:00:00+00,2020/03/18 00:00:00+00
"40",299 Kings Daughters Dr,Frankfort,Franklin,Frankfort Hospital Inc,502-875-5240,N,COT/GIS,KIM ANNESS,2020/03/18 00:00:00+00,GPS LOCATIONS FOR FRONT DOOR COLLECTED BY CHFS STATE HEALTH OPERATIONS CENTER,,CHFS OFFICE OF INSPECTOR GENERAL,,,"100130",Frankfort Regional Medical Center,"40601",Chip Peal,Y,ACUTE,"161","0","0","0",N,"0","12","0","0","0","0","0",2020/12/31 00:00:00+00,2019/10/16 00:00:00+00,2020/03/18 00:00:00+00
"41",238 Barnes Rd,Williamstown,Grant,St Elizabeth Medical Center Inc,859-824-8240,Y,COT/GIS,KIM ANNESS,2020/03/18 00:00:00+00,GPS LOCATIONS FOR FRONT DOOR COLLECTED BY CHFS STATE HEALTH OPERATIONS CENTER,,CHFS OFFICE OF INSPECTOR GENERAL,,,"600062",St. Elizabeth Grant,"41097",Bruno Giacomuzzi,Y,CAH,"0","0","25","0",N,"0","0","0","0","0","0","0",2020/06/30 00:00:00+00,2019/10/16 00:00:00+00,2020/03/18 00:00:00+00
"42",1099 Medical Center Circle  1000 Med Ctr Cir,Mayfield,Graves,"Pinelake Regional Hospital, Llc",270-251-4585,Y,COT/GIS,KIM ANNESS,2020/03/18 00:00:00+00,GPS LOCATIONS FOR FRONT DOOR COLLECTED BY CHFS STATE HEALTH OPERATIONS CENTER,,CHFS OFFICE OF INSPECTOR GENERAL,,,"100143",Jackson Purchase Medical Center,"42066",Dave Anderson,Y,ACUTE,"95","0","0","0",N,"12","0","0","0","0","0","0",2020/03/31 00:00:00+00,2019/10/16 00:00:00+00,2020/03/18 00:00:00+00
"43",202-206 Milby St,Greensburg,Green,"Jane Todd Crawford Memorial Hospital, Inc.",270-932-4211,Y,COT/GIS,KIM ANNESS,2020/03/18 00:00:00+00,GPS LOCATIONS FOR FRONT DOOR COLLECTED BY CHFS STATE HEALTH OPERATIONS CENTER,,CHFS OFFICE OF INSPECTOR GENERAL,,,"600077",Jane Todd Crawford Memorial Hospital,"42743",Rusty Tungate,N,CAH,"0","0","25","0",N,"10","0","0","0","0","0","0",2020/12/31 00:00:00+00,2019/10/16 00:00:00+00,2020/03/18 00:00:00+00
"44",913 N. Dixie Hwy,Elizabethtown,Hardin,"Hardin County, Kentucky",270-737-1212,N,COT/GIS,KIM ANNESS,2020/03/18 00:00:00+00,GPS LOCATIONS FOR FRONT DOOR COLLECTED BY CHFS STATE HEALTH OPERATIONS CENTER,,CHFS OFFICE OF INSPECTOR GENERAL,,,"100160",Hardin Memorial Hospital,"42701",Rhonda Joyce,Y,ACUTE,"270","0","0","0",N,"0","0","15","0","0","0","0",2020/11/30 00:00:00+00,2019/10/16 00:00:00+00,2020/03/18 00:00:00+00
"45",134 Heartland Dr,Elizabethtown,Hardin,"Encompass Health Rehabilitation Hospital of Lakeview, LLC",270-769-3100,N,COT/GIS,KIM ANNESS,2020/03/18 00:00:00+00,GPS LOCATIONS FOR FRONT DOOR COLLECTED BY CHFS STATE HEALTH OPERATIONS CENTER,,CHFS OFFICE OF INSPECTOR GENERAL,,,"100601",Encompass Health Rehabilitation Hospital of Lakeview,"42701",Lori Jarboe,Y,REHAB,"0","0","0","0",N,"0","0","0","0","0","0","40",2020/05/31 00:00:00+00,2019/10/16 00:00:00+00,2020/03/18 00:00:00+00
"46",3909 S. Wilson Road,Radcliff,Hardin,United Health Care Of Hardin Inc,270-351-9444,N,COT/GIS,KIM ANNESS,2020/03/18 00:00:00+00,GPS LOCATIONS FOR FRONT DOOR COLLECTED BY CHFS STATE HEALTH OPERATIONS CENTER,,CHFS OFFICE OF INSPECTOR GENERAL,,,"100574",Lincoln Trail Behavioral Health System,"40160",Charles Webb,Y,PSY,"0","0","0","29",N,"111","0","0","0","0","0","0",2020/04/30 00:00:00+00,2019/10/16 00:00:00+00,2020/03/18 00:00:00+00
"47",81 Ball Park Rd,Harlan,Harlan,Appalachian Regional Healthcare Inc,606-573-8100,N,COT/GIS,KIM ANNESS,2020/03/18 00:00:00+00,GPS LOCATIONS FOR FRONT DOOR COLLECTED BY CHFS STATE HEALTH OPERATIONS CENTER,,CHFS OFFICE OF INSPECTOR GENERAL,,,"100163",Harlan ARH Hospital,"40831",Donald Fields,Y,ACUTE,"120","0","0","0",N,"30","0","0","0","0","0","0",2020/10/31 00:00:00+00,2019/10/16 00:00:00+00,2020/03/18 00:00:00+00
"48",1210 KY-36,Cynthiana,Harrison,Harrison Memorial Hospital Inc,859-234-2300,Y,COT/GIS,KIM ANNESS,2020/03/18 00:00:00+00,GPS LOCATIONS FOR FRONT DOOR COLLECTED BY CHFS STATE HEALTH OPERATIONS CENTER,,CHFS OFFICE OF INSPECTOR GENERAL,,,"100167",Harrison Memorial Hospital,"41031",Sheila Currans,Y,ACUTE,"61","0","0","0",N,"0","0","0","0","0","0","0",2020/10/31 00:00:00+00,2019/10/16 00:00:00+00,2020/03/18 00:00:00+00
"49",1501 S Dixie St,Horse Cave,Hart,Bowling Green-Warren County Community Hospital Corporation,270-786-2191,Y,COT/GIS,KIM ANNESS,2020/03/18 00:00:00+00,GPS LOCATIONS FOR FRONT DOOR COLLECTED BY CHFS STATE HEALTH OPERATIONS CENTER,,CHFS OFFICE OF INSPECTOR GENERAL,,,"600065",The Medical Center at Caverna,"42749",Alan Alexander,N,CAH,"0","0","25","0",N,"0","0","0","0","0","0","0",2021/01/31 00:00:00+00,2019/10/16 00:00:00+00,2020/03/18 00:00:00+00
"50",1305 N Elm St,Henderson,Henderson,Community United Methodist Hospital Inc,270-827-7700,N,COT/GIS,KIM ANNESS,2020/03/18 00:00:00+00,GPS LOCATIONS FOR FRONT DOOR COLLECTED BY CHFS STATE HEALTH OPERATIONS CENTER,,CHFS OFFICE OF INSPECTOR GENERAL,,,"100173",Methodist Hospital,"42420",Benny Nolen,Y,ACUTE,"184","0","0","0",N,"8","0","0","0","0","0","0",2020/08/31 00:00:00+00,2019/10/16 00:00:00+00,2020/03/18 00:00:00+00
"51",900 Hospital Dr,Madisonville,Hopkins,"Baptist Health Madisonville, Inc.",270-825-5100,N,COT/GIS,KIM ANNESS,2020/03/18 00:00:00+00,GPS LOCATIONS FOR FRONT DOOR COLLECTED BY CHFS STATE HEALTH OPERATIONS CENTER,,CHFS OFFICE OF INSPECTOR GENERAL,,,"100184",Baptist Health Madisonville,"42431",Michael Baumgartner,Y,ACUTE,"348","0","0","0",N,"22","0","0","0","0","0","20",2020/07/31 00:00:00+00,2019/10/16 00:00:00+00,2020/03/18 00:00:00+00
"52",4000 Kresge Way,Louisville,Jefferson,"Baptist Healthcare Systems, Inc.",502-897-8100,N,COT/GIS,KIM ANNESS,2020/03/18 00:00:00+00,GPS LOCATIONS FOR FRONT DOOR COLLECTED BY CHFS STATE HEALTH OPERATIONS CENTER,,CHFS OFFICE OF INSPECTOR GENERAL,,,"100451",Baptist Health Louisville,"40207",David Gray,Y,ACUTE,"468","0","0","0",N,"22","0","0","0","0","0","29",2020/03/31 00:00:00+00,2019/10/16 00:00:00+00,2020/03/18 00:00:00+00
"53",10510 LaGrange Rd,Louisville,Jefferson,Commonwealth of KY,502-253-7045,N,COT/GIS,KIM ANNESS,2020/03/18 00:00:00+00,GPS LOCATIONS FOR FRONT DOOR COLLECTED BY CHFS STATE HEALTH OPERATIONS CENTER,,CHFS OFFICE OF INSPECTOR GENERAL,,,"100198",Central State Hospital,"40223",Matt  Mooring,Y,PSY,"0","0","0","0",N,"192","0","0","0","0","0","0",2020/09/30 00:00:00+00,2019/10/16 00:00:00+00,2020/03/18 00:00:00+00
"54",220 Abraham Flexner Way,Louisville,Jefferson,"Jewish Hospital & St. Mary's Healthcare, Inc.",502-407-3242,N,COT/GIS,KIM ANNESS,2020/03/18 00:00:00+00,GPS LOCATIONS FOR FRONT DOOR COLLECTED BY CHFS STATE HEALTH OPERATIONS CENTER,,CHFS OFFICE OF INSPECTOR GENERAL,,,"100244",Frazier Rehab Institute,"40202",Cathy Spalding,Y,REHAB,"0","0","0","0",N,"0","0","0","0","0","0","135",2020/11/30 00:00:00+00,2019/10/16 00:00:00+00,2020/03/18 00:00:00+00
"55",200 Abraham Flexner Way,Louisville,Jefferson,"Jewish Hospital & St. Mary's HealthCare, Inc.",502-587-4011,N,COT/GIS,KIM ANNESS,2020/03/18 00:00:00+00,GPS LOCATIONS FOR FRONT DOOR COLLECTED BY CHFS STATE HEALTH OPERATIONS CENTER,,CHFS OFFICE OF INSPECTOR GENERAL,,,"100215",Jewish Hospital & St. Mary's Healthcare,"40202",Ron Waldridge II,Y,ACUTE,"442","0","0","0",Y,"20","0","0","0","0","0","0",2020/11/30 00:00:00+00,2019/10/16 00:00:00+00,2020/03/18 00:00:00+00
"56","3 Audubon Plaza Drive Lower, Level 2",Louisville,Jefferson,"Norton Hospital, Inc.",502-636-7006,N,COT/GIS,KIM ANNESS,2020/03/18 00:00:00+00,GPS LOCATIONS FOR FRONT DOOR COLLECTED BY CHFS STATE HEALTH OPERATIONS CENTER,,CHFS OFFICE OF INSPECTOR GENERAL,,,"100252",Norton Audubon Hospital,"40217",Jon Cooper,y,ACUTE,"432","0","0","0",N,"0","0","0","0","0","0","0",2020/06/30 00:00:00+00,2019/10/16 00:00:00+00,2020/03/18 00:00:00+00
"57",4960 Norton Healthcare Blvd,Louisville,Jefferson,"Norton Hospitals, Inc.",502-446-8000,N,COT/GIS,KIM ANNESS,2020/03/18 00:00:00+00,GPS LOCATIONS FOR FRONT DOOR COLLECTED BY CHFS STATE HEALTH OPERATIONS CENTER,,CHFS OFFICE OF INSPECTOR GENERAL,,,"100475",Norton Brownsboro Hospital,"40241",Andrew Strausbaugh,y,ACUTE,"127","0","0","0",N,"0","0","0","0","0","0","0",2020/08/31 00:00:00+00,2019/10/16 00:00:00+00,2020/03/18 00:00:00+00
"58",200 E Chestnut St,Louisville,Jefferson,"Norton Hospitals, Inc.",502-629-8000,N,COT/GIS,KIM ANNESS,2020/03/18 00:00:00+00,GPS LOCATIONS FOR FRONT DOOR COLLECTED BY CHFS STATE HEALTH OPERATIONS CENTER,,CHFS OFFICE OF INSPECTOR GENERAL,,,"100234",Norton Hospital/Norton Medical Pavilion/Norton Children's Hospital,"40202",Matthew Ayers,Y,ACUTE,"859","0","0","0",Y,"46","0","0","0","0","0","0",2021/01/31 00:00:00+00,2019/10/16 00:00:00+00,2020/03/18 00:00:00+00
"59",4001 Dutchmans Ln,Louisville,Jefferson,"Norton Hospital, Inc.",502-893-1000,N,COT/GIS,KIM ANNESS,2020/03/18 00:00:00+00,GPS LOCATIONS FOR FRONT DOOR COLLECTED BY CHFS STATE HEALTH OPERATIONS CENTER,,CHFS OFFICE OF INSPECTOR GENERAL,,,"100255",Norton Women's and Children's Hospital,"40207",Charlotte Ipsan,y,ACUTE,"373","0","0","0",N,"0","0","0","0","0","0","0",2020/07/31 00:00:00+00,2019/10/16 00:00:00+00,2020/03/18 00:00:00+00
"60","2020 Newburg Rd, Louisville, KY",Louisville,Jefferson,"Jewish Hospital & St. Mary's HealthCare, Inc.",502-451-3330,N,COT/GIS,KIM ANNESS,2020/03/18 00:00:00+00,GPS LOCATIONS FOR FRONT DOOR COLLECTED BY CHFS STATE HEALTH OPERATIONS CENTER,,CHFS OFFICE OF INSPECTOR GENERAL,,,"100236",Our Lady of Peace,"40205",Martha Mather,Y,PSY,"0","0","0","0",N,"396","0","0","0","0","0","0",2020/07/31 00:00:00+00,2019/10/16 00:00:00+00,2020/03/18 00:00:00+00
"61",1850 Bluegrass Ave,Louisville,Jefferson,"Jewish Hospital & St. Mary's HealthCare, Inc.",502-361-6000,N,COT/GIS,KIM ANNESS,2020/03/18 00:00:00+00,GPS LOCATIONS FOR FRONT DOOR COLLECTED BY CHFS STATE HEALTH OPERATIONS CENTER,,CHFS OFFICE OF INSPECTOR GENERAL,,,"100254",Saints Mary & Elizabeth Hospital,"40215",Charles Powell,Y,ACUTE,"298","0","0","0",Y,"0","0","0","0","0","0","0",2020/11/30 00:00:00+00,2019/10/16 00:00:00+00,2020/03/18 00:00:00+00
"62",1405 Browns Ln,Louisville,Jefferson,"TBD Acquisition, LLC",502-896-0495,N,COT/GIS,KIM ANNESS,2020/03/18 00:00:00+00,GPS LOCATIONS FOR FRONT DOOR COLLECTED BY CHFS STATE HEALTH OPERATIONS CENTER,,CHFS OFFICE OF INSPECTOR GENERAL,,,"100595",The Brook - Dupont,"40207",Paul Andrews,Y,PSY,"0","0","0","12",N,"56","0","20","0","0","0","0",2020/12/31 00:00:00+00,2019/10/16 00:00:00+00,2020/03/18 00:00:00+00
"63",8521 La Grange Rd,Louisville,Jefferson,"KMI Acquisition, LLC",502-426-6380,N,COT/GIS,KIM ANNESS,2020/03/18 00:00:00+00,GPS LOCATIONS FOR FRONT DOOR COLLECTED BY CHFS STATE HEALTH OPERATIONS CENTER,,CHFS OFFICE OF INSPECTOR GENERAL,,,"100241",The Brook Hospital - KMI,"40242",Paul Andrews,Y,PSY,"0","0","0","12",N,"86","0","0","0","0","0","0",2020/11/30 00:00:00+00,2019/10/16 00:00:00+00,2020/03/18 00:00:00+00
"64",530 S Jackson St,Louisville,Jefferson,University Medical Center Inc,502-562-3000,N,COT/GIS,KIM ANNESS,2020/03/18 00:00:00+00,GPS LOCATIONS FOR FRONT DOOR COLLECTED BY CHFS STATE HEALTH OPERATIONS CENTER,,CHFS OFFICE OF INSPECTOR GENERAL,,,"100220",University Of Louisville Hospital,"40202",Ken Marshall,Y,ACUTE,"384","0","0","0",N,"20","0","0","0","0","0","0",2020/06/30 00:00:00+00,2019/10/16 00:00:00+00,2020/03/18 00:00:00+00
"65",625 James S Trimble Blvd,Paintsville,Johnson,"Paintsville Hospital Company, LLC",606-789-3511,N,COT/GIS,KIM ANNESS,2020/03/18 00:00:00+00,GPS LOCATIONS FOR FRONT DOOR COLLECTED BY CHFS STATE HEALTH OPERATIONS CENTER,,CHFS OFFICE OF INSPECTOR GENERAL,,,"100263",Paul B Hall Regional Medical Center,"41240",Deborah L. Trimble,Y,ACUTE,"72","0","0","0",N,"0","0","0","0","0","0","0",2020/08/31 00:00:00+00,2019/10/16 00:00:00+00,2020/03/18 00:00:00+00
"66",201 Medical Village Dr,Edgewood,Kenton,"HealthSouth Northern Kentucky Rehabilitation Hospital, LLC",859-341-2044,N,COT/GIS,KIM ANNESS,2020/03/18 00:00:00+00,GPS LOCATIONS FOR FRONT DOOR COLLECTED BY CHFS STATE HEALTH OPERATIONS CENTER,,CHFS OFFICE OF INSPECTOR GENERAL,,,"100592",Encompass Health Rehabilitation Hospital of Northern Kentucky,"41017",Jeremy Yates,Y,REHAB,"0","0","0","0",N,"0","0","0","0","0","0","51",2020/09/30 00:00:00+00,2019/10/16 00:00:00+00,2020/03/18 00:00:00+00
"67",1 Medical Village Dr,Edgewood,Kenton,St Elizabeth Medical Center Inc,859-301-2000,N,COT/GIS,KIM ANNESS,2020/03/18 00:00:00+00,GPS LOCATIONS FOR FRONT DOOR COLLECTED BY CHFS STATE HEALTH OPERATIONS CENTER,,CHFS OFFICE OF INSPECTOR GENERAL,,,"100272",St. Elizabeth Medical Center,"41017",Garren Colvin,Y,ACUTE,"37","0","0","58",Y,"8","0","0","0","0","0","0",2020/12/31 00:00:00+00,2019/10/16 00:00:00+00,2020/03/18 00:00:00+00
"68",1 Medical Village Dr,Edgewood,Kenton,St Elizabeth Medical Center Inc,859-301-2000,N,COT/GIS,KIM ANNESS,2020/03/18 00:00:00+00,GPS LOCATIONS FOR FRONT DOOR COLLECTED BY CHFS STATE HEALTH OPERATIONS CENTER,,CHFS OFFICE OF INSPECTOR GENERAL,,,"100500",St. Elizabeth Edgewood,"41017",Garren Colvin,Y,ACUTE,"498","0","0","0",N,"20","0","0","0","0","0","0",2020/12/31 00:00:00+00,2019/10/16 00:00:00+00,2020/03/18 00:00:00+00
"69",820 Dolwick Dr,Erlanger,Kenton,"Northern Kentucky Behavioral, LLC",732-747-1800,N,COT/GIS,KIM ANNESS,2020/03/18 00:00:00+00,GPS LOCATIONS FOR FRONT DOOR COLLECTED BY CHFS STATE HEALTH OPERATIONS CENTER,,CHFS OFFICE OF INSPECTOR GENERAL,,,"100265",SUN Behavioral Health,"41018",Christopher Lockey,N,PSY,"0","0","0","86",N,"105","0","0","0","0","6","0",2021/02/28 00:00:00+00,2019/10/16 00:00:00+00,2020/03/18 00:00:00+00
"70",80 Hospital Dr (Cr-1618-10),Barbourville,Knox,"ARH Mary Breckinridge Health Services, Inc.",606-546-4175,Y,COT/GIS,KIM ANNESS,2020/03/18 00:00:00+00,GPS LOCATIONS FOR FRONT DOOR COLLECTED BY CHFS STATE HEALTH OPERATIONS CENTER,,CHFS OFFICE OF INSPECTOR GENERAL,,,"600080",Barbourville ARH Hospital,"40906",Charles Lovell,Y,CAH,"0","0","25","0",N,"0","0","0","0","0","0","0",2020/07/31 00:00:00+00,2019/10/16 00:00:00+00,2020/03/18 00:00:00+00
"71",One Trillium Way,Corbin,Laurel,Baptist Healthcare System Inc,606-528-1212,Y,COT/GIS,KIM ANNESS,2020/03/18 00:00:00+00,GPS LOCATIONS FOR FRONT DOOR COLLECTED BY CHFS STATE HEALTH OPERATIONS CENTER,,CHFS OFFICE OF INSPECTOR GENERAL,,,"100417",Baptist Health Corbin,"40701",Anthony Powers,Y,ACUTE,"194","0","0","15",N,"0","0","36","8","0","0","20",2020/06/30 00:00:00+00,2019/10/16 00:00:00+00,2020/03/18 00:00:00+00
"72",1001 St Joseph Ln,London,Laurel,"Saint Joseph Health System, Inc.",606-330-6000,Y,COT/GIS,KIM ANNESS,2020/03/18 00:00:00+00,GPS LOCATIONS FOR FRONT DOOR COLLECTED BY CHFS STATE HEALTH OPERATIONS CENTER,,CHFS OFFICE OF INSPECTOR GENERAL,,,"100281",Saint Joseph Hospital London,"40741",Terrence Dies,Y,ACUTE,"150","0","0","0",N,"0","0","0","0","0","0","0",2020/05/31 00:00:00+00,2019/10/16 00:00:00+00,2020/03/18 00:00:00+00
"73",2485 KY-644,Louisa,Lawrence,Hospital Of Louisa Inc,606-638-9451,Y,COT/GIS,KIM ANNESS,2020/03/18 00:00:00+00,GPS LOCATIONS FOR FRONT DOOR COLLECTED BY CHFS STATE HEALTH OPERATIONS CENTER,,CHFS OFFICE OF INSPECTOR GENERAL,,,"100282",Three Rivers Medical Center,"41230",Greg Kiser,Y,ACUTE,"71","0","0","0",N,"19","0","0","0","0","0","0",2021/03/31 00:00:00+00,2019/10/16 00:00:00+00,2020/03/18 00:00:00+00
"74",130 Kate Ireland Dr,Hyden,Leslie,"ARH Mary Breckinridge Health Services, Inc.",606-672-2901,Y,COT/GIS,KIM ANNESS,2020/03/18 00:00:00+00,GPS LOCATIONS FOR FRONT DOOR COLLECTED BY CHFS STATE HEALTH OPERATIONS CENTER,,CHFS OFFICE OF INSPECTOR GENERAL,,,"600067",Mary Breckinridge ARH Hospital,"41749",Mallie Noble,N,CAH,"0","0","25","0",N,"0","0","0","0","0","0","0",2020/03/31 00:00:00+00,2019/10/16 00:00:00+00,2020/03/18 00:00:00+00
"75",240 Hospital Rd,Whitesburg,Letcher,Appalachian Regional Healthcare Inc,606-633-3500,Y,COT/GIS,KIM ANNESS,2020/03/18 00:00:00+00,GPS LOCATIONS FOR FRONT DOOR COLLECTED BY CHFS STATE HEALTH OPERATIONS CENTER,,CHFS OFFICE OF INSPECTOR GENERAL,,,"100288",Whitesburg ARH Hospital,"41858",Dena Sparkman,Y,ACUTE,"90","0","0","0",N,"0","0","0","0","0","0","0",2020/07/31 00:00:00+00,2019/10/16 00:00:00+00,2020/03/18 00:00:00+00
"76",110 Metker Trail,Stanford,Lincoln,"Emhfl, Inc.",606-365-4788,Y,COT/GIS,KIM ANNESS,2020/03/18 00:00:00+00,GPS LOCATIONS FOR FRONT DOOR COLLECTED BY CHFS STATE HEALTH OPERATIONS CENTER,,CHFS OFFICE OF INSPECTOR GENERAL,,,"600066",Ephraim McDowell Fort Logan Hospital,"40484",Daniel McKay,Y,CAH,"0","0","25","0",N,"0","0","0","0","0","0","0",2020/10/31 00:00:00+00,2019/10/16 00:00:00+00,2020/03/18 00:00:00+00
"77",131 Hospital Dr,Salem,Livingston,Livingston Hosp And Healthcare Svcs Inc,270-988-2299,Y,COT/GIS,KIM ANNESS,2020/03/18 00:00:00+00,GPS LOCATIONS FOR FRONT DOOR COLLECTED BY CHFS STATE HEALTH OPERATIONS CENTER,,CHFS OFFICE OF INSPECTOR GENERAL,,,"600071",Livingston Hosp. & Healthcare Svcs. Inc.,"42078",Kent Giles,N,CAH,"0","0","25","0",N,"0","0","0","0","0","0","0",2020/11/30 00:00:00+00,2019/10/16 00:00:00+00,2020/03/18 00:00:00+00
"78",1623 Nashville St,Russellville,Logan,"Logan Memorial Hospital, LLC",270-726-4011,Y,COT/GIS,KIM ANNESS,2020/03/18 00:00:00+00,GPS LOCATIONS FOR FRONT DOOR COLLECTED BY CHFS STATE HEALTH OPERATIONS CENTER,,CHFS OFFICE OF INSPECTOR GENERAL,,,"100298",Logan Memorial Hospital,"42276",David Brash,Y,ACUTE,"75","0","0","0",N,"0","0","0","0","0","0","0",2020/08/31 00:00:00+00,2019/10/16 00:00:00+00,2020/03/18 00:00:00+00
"79",789 Eastern Bypass,Richmond,Madison,"Baptist Health Richmond, Inc.",859-623-3131,Y,COT/GIS,KIM ANNESS,2020/03/18 00:00:00+00,GPS LOCATIONS FOR FRONT DOOR COLLECTED BY CHFS STATE HEALTH OPERATIONS CENTER,,CHFS OFFICE OF INSPECTOR GENERAL,,,"100322",Baptist Health Richmond,"40475",C. Todd Jones,Y,ACUTE,"105","0","0","0",N,"0","0","0","0","0","0","0",2020/11/30 00:00:00+00,2019/10/16 00:00:00+00,2020/03/18 00:00:00+00
"80",305 Estill St,Berea,Madison,"Saint Joseph Health System, Inc.",859-986-6500,Y,COT/GIS,KIM ANNESS,2020/03/18 00:00:00+00,GPS LOCATIONS FOR FRONT DOOR COLLECTED BY CHFS STATE HEALTH OPERATIONS CENTER,,CHFS OFFICE OF INSPECTOR GENERAL,,,"600079",Saint Joseph Berea,"40403",Joshua Boyd Huffman,Y,CAH,"0","0","25","0",N,"0","0","0","0","0","0","0",2021/01/31 00:00:00+00,2019/10/16 00:00:00+00,2020/03/18 00:00:00+00
"81",320 Loretto Rd,Lebanon,Marion,"Spring View Hospital, LLC",270-692-5145,Y,COT/GIS,KIM ANNESS,2020/03/18 00:00:00+00,GPS LOCATIONS FOR FRONT DOOR COLLECTED BY CHFS STATE HEALTH OPERATIONS CENTER,,CHFS OFFICE OF INSPECTOR GENERAL,,,"100327",Spring View Hospital,"40033",Timothy Trottier,Y,ACUTE,"63","0","0","0",N,"0","12","0","0","0","0","0",2020/07/31 00:00:00+00,2019/10/16 00:00:00+00,2020/03/18 00:00:00+00
"82",615 Old Symsonia Rd,Benton,Marshall,Marshall Co. Public Hospital District Corp,270-527-4800,Y,COT/GIS,KIM ANNESS,2020/03/18 00:00:00+00,GPS LOCATIONS FOR FRONT DOOR COLLECTED BY CHFS STATE HEALTH OPERATIONS CENTER,,CHFS OFFICE OF INSPECTOR GENERAL,,,"600078",Marshall County Hospital,"42025",David Fuqua,Y,CAH,"0","0","25","0",N,"0","0","0","0","0","0","0",2020/07/31 00:00:00+00,2019/10/16 00:00:00+00,2020/03/18 00:00:00+00
"83",989 Medical Park Dr,Maysville,Mason,Meadowview Regional Medical Center Llc,606-759-5311,N,COT/GIS,KIM ANNESS,2020/03/18 00:00:00+00,GPS LOCATIONS FOR FRONT DOOR COLLECTED BY CHFS STATE HEALTH OPERATIONS CENTER,,CHFS OFFICE OF INSPECTOR GENERAL,,,"100332",Meadowview Regional Medical Center,"41056",Joseph Koch,Y,ACUTE,"100","0","0","0",N,"0","0","0","0","0","0","0",2020/04/30 00:00:00+00,2019/10/16 00:00:00+00,2020/03/18 00:00:00+00
"84",2501 Kentucky Ave,Paducah,McCracken,Baptist Healthcare Systems Inc,270-575-2100,N,COT/GIS,KIM ANNESS,2020/03/18 00:00:00+00,GPS LOCATIONS FOR FRONT DOOR COLLECTED BY CHFS STATE HEALTH OPERATIONS CENTER,,CHFS OFFICE OF INSPECTOR GENERAL,,,"100313",Baptist Health Paducah,"42003",Chris   Roty,Y,ACUTE,"349","0","0","0",N,"0","0","0","0","0","0","0",2020/12/31 00:00:00+00,2019/10/16 00:00:00+00,2020/03/18 00:00:00+00
"85",1530 Lone Oak Rd,Paducah,McCracken,"Mercy Health-Lourdes Hospital, LLC",270-444-2444,N,COT/GIS,KIM ANNESS,2020/03/18 00:00:00+00,GPS LOCATIONS FOR FRONT DOOR COLLECTED BY CHFS STATE HEALTH OPERATIONS CENTER,,CHFS OFFICE OF INSPECTOR GENERAL,,,"100304",Lourdes Hospital,"42033",Michael Yungmann,Y,ACUTE,"286","0","0","0",N,"45","0","0","0","0","0","28",2020/05/31 00:00:00+00,2019/10/16 00:00:00+00,2020/03/18 00:00:00+00
"86",464 Linden Ave,Harrodsburg,Mercer,The James B Haggin Memorial Hospital Inc,859-239-2409,Y,COT/GIS,KIM ANNESS,2020/03/18 00:00:00+00,GPS LOCATIONS FOR FRONT DOOR COLLECTED BY CHFS STATE HEALTH OPERATIONS CENTER,,CHFS OFFICE OF INSPECTOR GENERAL,,,"600053",The James B. Haggin Memorial Hospital,"40330",Daniel  McKay,Y,CAH,"0","0","25","0",N,"0","0","0","0","0","0","0",2021/02/28 00:00:00+00,2019/10/16 00:00:00+00,2020/03/18 00:00:00+00
"87",529 Capp Harlan Rd,Tompkinsville,Monroe,Monroe Medical Foundation Inc,270-487-9231,N,COT/GIS,KIM ANNESS,2020/03/18 00:00:00+00,GPS LOCATIONS FOR FRONT DOOR COLLECTED BY CHFS STATE HEALTH OPERATIONS CENTER,,CHFS OFFICE OF INSPECTOR GENERAL,,,"100338",Monroe County Medical Center,"42167",Vicky McFall,Y,ACUTE,"49","0","0","0",N,"0","0","0","0","0","0","0",2021/02/28 00:00:00+00,2019/10/16 00:00:00+00,2020/03/18 00:00:00+00
"88",225 Falcon Dr,Mt Sterling,Montgomery,"Saint Joseph Health System, Inc.",859-497-5018,Y,COT/GIS,KIM ANNESS,2020/03/18 00:00:00+00,GPS LOCATIONS FOR FRONT DOOR COLLECTED BY CHFS STATE HEALTH OPERATIONS CENTER,,CHFS OFFICE OF INSPECTOR GENERAL,,,"100339",Saint Joseph Mount Sterling,"40353",Cinda Fluke,Y,ACUTE,"42","0","0","0",N,"0","0","0","0","0","0","0",2020/12/31 00:00:00+00,2019/10/16 00:00:00+00,2020/03/18 00:00:00+00
"89",476 Liberty Rd,West Liberty,Morgan,Appalachian Regional Healthcare Inc,606-743-3186,Y,COT/GIS,KIM ANNESS,2020/03/18 00:00:00+00,GPS LOCATIONS FOR FRONT DOOR COLLECTED BY CHFS STATE HEALTH OPERATIONS CENTER,,CHFS OFFICE OF INSPECTOR GENERAL,,,"600058",Morgan County ARH Hospital,"41472",Stephen Gavalchik,Y,CAH,"0","0","25","0",N,"0","0","0","0","0","0","0",2020/03/31 00:00:00+00,2019/10/16 00:00:00+00,2020/03/18 00:00:00+00
"90",440 Hopkinsville St,Greenville,Muhlenberg,"OH Muhlenberg, LLC",270-338-8000,N,COT/GIS,KIM ANNESS,2020/03/18 00:00:00+00,GPS LOCATIONS FOR FRONT DOOR COLLECTED BY CHFS STATE HEALTH OPERATIONS CENTER,,CHFS OFFICE OF INSPECTOR GENERAL,,,"100344",Owensboro Health Muhlenberg Community Hospital,"42345",Ed Heath,Y,ACUTE,"90","0","0","0",N,"0","0","0","0","0","0","0",2020/08/31 00:00:00+00,2019/10/16 00:00:00+00,2020/03/18 00:00:00+00
"91",4305 New Shepherdsville Rd,Bardstown,Nelson,"Flaget Health, Inc.",502-350-5000,N,COT/GIS,KIM ANNESS,2020/03/18 00:00:00+00,GPS LOCATIONS FOR FRONT DOOR COLLECTED BY CHFS STATE HEALTH OPERATIONS CENTER,,CHFS OFFICE OF INSPECTOR GENERAL,,,"100348",Flaget Memorial Hospital,"40004",Jennifer Nolan,Y,ACUTE,"40","0","0","0",N,"0","0","0","0","0","0","0",2020/04/30 00:00:00+00,2019/10/16 00:00:00+00,2020/03/18 00:00:00+00
"92",1211 Old Main St,Hartford,Ohio,Ohio County Hospital Corporation,270-298-7411,Y,COT/GIS,KIM ANNESS,2020/03/18 00:00:00+00,GPS LOCATIONS FOR FRONT DOOR COLLECTED BY CHFS STATE HEALTH OPERATIONS CENTER,,CHFS OFFICE OF INSPECTOR GENERAL,,,"600073",Ohio County Hospital,"42347",Blaine Pieper,Y,CAH,"0","0","25","0",N,"0","0","0","0","0","0","0",2020/09/30 00:00:00+00,2019/10/16 00:00:00+00,2020/03/18 00:00:00+00
"93",1025 New Moody Ln,LaGrange,Oldham,"Baptist Healthcare Systems, Inc.",502-222-5388,Y,COT/GIS,KIM ANNESS,2020/03/18 00:00:00+00,GPS LOCATIONS FOR FRONT DOOR COLLECTED BY CHFS STATE HEALTH OPERATIONS CENTER,,CHFS OFFICE OF INSPECTOR GENERAL,,,"100575",Baptist Health La Grange,"40031",Clint Kaho,Y,ACUTE,"90","0","0","0",N,"0","0","0","0","0","0","0",2020/12/31 00:00:00+00,2019/10/16 00:00:00+00,2020/03/18 00:00:00+00
"94",1002 Medical Center Dr,Hazarrd,Perry,Appalachian Regional Healthcare Inc,606-439-6600,N,COT/GIS,KIM ANNESS,2020/03/18 00:00:00+00,GPS LOCATIONS FOR FRONT DOOR COLLECTED BY CHFS STATE HEALTH OPERATIONS CENTER,,CHFS OFFICE OF INSPECTOR GENERAL,,,"100365",Hazard ARH Regional Medical Center,"41701",Dan Stone,Y,ACUTE,"238","0","0","0",N,"100","0","0","0","0","0","20",2020/05/31 00:00:00+00,2019/10/16 00:00:00+00,2020/03/18 00:00:00+00
"95",911 S Bypass Rd,Pikeville,Pike,"Pikeville Medical Center, Inc.",606-218-3500,N,COT/GIS,KIM ANNESS,2020/03/18 00:00:00+00,GPS LOCATIONS FOR FRONT DOOR COLLECTED BY CHFS STATE HEALTH OPERATIONS CENTER,,CHFS OFFICE OF INSPECTOR GENERAL,,,"100366",Pikeville Medical Center,"41501",Donovan Blackburn,Y,ACUTE,"320","0","0","0",N,"0","0","0","0","0","0","20",2021/02/28 00:00:00+00,2019/10/16 00:00:00+00,2020/03/18 00:00:00+00
"96",260 Hospital Dr,South Williamson,Pike,"Appalachian Regional Healthcare, Inc.",606-237-1700,N,COT/GIS,KIM ANNESS,2020/03/18 00:00:00+00,GPS LOCATIONS FOR FRONT DOOR COLLECTED BY CHFS STATE HEALTH OPERATIONS CENTER,,CHFS OFFICE OF INSPECTOR GENERAL,,,"100368",Tug Valley ARH Regional Medical Center,"41503",Timothy Hatfield,Y,ACUTE,"113","0","0","0",N,"0","0","0","0","0","0","0",2020/11/30 00:00:00+00,2019/10/16 00:00:00+00,2020/03/18 00:00:00+00
"97",305 Langdon St,Somerset,Pulaski,"Lake Cumberland, LLC",606-679-7441,N,COT/GIS,KIM ANNESS,2020/03/18 00:00:00+00,GPS LOCATIONS FOR FRONT DOOR COLLECTED BY CHFS STATE HEALTH OPERATIONS CENTER,,CHFS OFFICE OF INSPECTOR GENERAL,,,"100959",Lake Cumberland Regional Hospital,"42503",Steve Sloan,Y,ACUTE,"231","0","0","0",N,"34","0","0","0","0","0","18",2020/06/30 00:00:00+00,2019/10/16 00:00:00+00,2020/03/18 00:00:00+00
"98",145 Newcomb Ave,Mt. Vernon,Rockcastle,"Rockcastle Regional Hsp And Respiratory Care Ctr, Inc",606-256-2195,Y,COT/GIS,KIM ANNESS,2020/03/18 00:00:00+00,GPS LOCATIONS FOR FRONT DOOR COLLECTED BY CHFS STATE HEALTH OPERATIONS CENTER,,CHFS OFFICE OF INSPECTOR GENERAL,,,"100960",Rockcastle Regional Hospital & Respiratory Care Center,"40456",Stephen Estes,Y,ACUTE,"26","0","0","0",N,"0","0","0","0","0","0","0",2020/12/31 00:00:00+00,2019/10/16 00:00:00+00,2020/03/18 00:00:00+00
"99",222 Medical Circle,Morehead,Rowan,St Claire Medical Center Inc,606-783-6500,N,COT/GIS,KIM ANNESS,2020/03/18 00:00:00+00,GPS LOCATIONS FOR FRONT DOOR COLLECTED BY CHFS STATE HEALTH OPERATIONS CENTER,,CHFS OFFICE OF INSPECTOR GENERAL,,,"100377",St. Claire Regional Medical Center,"40351",Mark Neff,Y,ACUTE,"119","0","0","0",N,"20","0","0","0","0","0","10",2020/12/31 00:00:00+00,2019/10/16 00:00:00+00,2020/03/18 00:00:00+00
"100",153 Dowell Rd,Russell Springs,Russell,"Russell County Hospital District Health Facility Corporation, Inc.",270-866-4141,Y,COT/GIS,KIM ANNESS,2020/03/18 00:00:00+00,GPS LOCATIONS FOR FRONT DOOR COLLECTED BY CHFS STATE HEALTH OPERATIONS CENTER,,CHFS OFFICE OF INSPECTOR GENERAL,,,"600081",Russell County Hospital,"42642",Scott Thompson,N,CAH,"0","0","25","0",N,"0","0","0","0","0","0","0",2020/06/30 00:00:00+00,2019/10/16 00:00:00+00,2020/03/18 00:00:00+00
"101",1140 Lexington Rd,Georgetown,Scott,"Georgetown Community, Llc",502-868-1100,Y,COT/GIS,KIM ANNESS,2020/03/18 00:00:00+00,GPS LOCATIONS FOR FRONT DOOR COLLECTED BY CHFS STATE HEALTH OPERATIONS CENTER,,CHFS OFFICE OF INSPECTOR GENERAL,,,"100380",Georgetown Community Hospital,"40324",William Haugh,Y,ACUTE,"75","0","0","0",N,"0","0","0","0","0","0","0",2020/03/31 00:00:00+00,2019/10/16 00:00:00+00,2020/03/18 00:00:00+00
"102",727 Hospital Dr,Shelbyville,Shelby,Jewish Hospital & St. Mary's HealthCare  Inc.,502-647-4300,N,COT/GIS,KIM ANNESS,2020/03/18 00:00:00+00,GPS LOCATIONS FOR FRONT DOOR COLLECTED BY CHFS STATE HEALTH OPERATIONS CENTER,,CHFS OFFICE OF INSPECTOR GENERAL,,,"100385",Jewish Hospital Shelbyville,"40065",Anessa Baker,Y,ACUTE,"70","0","0","0",N,"0","0","0","0","0","0","0",2020/06/30 00:00:00+00,2019/10/16 00:00:00+00,2020/03/18 00:00:00+00
"103",1100 Brookhaven Rd,Franklin,Simpson,"The Medical Center At Franklin, Inc",270-598-4800,Y,COT/GIS,KIM ANNESS,2020/03/18 00:00:00+00,GPS LOCATIONS FOR FRONT DOOR COLLECTED BY CHFS STATE HEALTH OPERATIONS CENTER,,CHFS OFFICE OF INSPECTOR GENERAL,,,"600069",The Medical Center At Franklin,"42134",Anette Runyon,Y,CAH,"0","0","25","0",N,"0","0","0","0","0","0","0",2021/02/28 00:00:00+00,2019/10/16 00:00:00+00,2020/03/18 00:00:00+00
"104",1700 Old Lebanon Rd,Campbellsville,Taylor,Taylor Co Hosp Dist Health Facilities Corp,270-465-3561,N,COT/GIS,KIM ANNESS,2020/03/18 00:00:00+00,GPS LOCATIONS FOR FRONT DOOR COLLECTED BY CHFS STATE HEALTH OPERATIONS CENTER,,CHFS OFFICE OF INSPECTOR GENERAL,,,"100394",Taylor Regional Hospital,"42718",Jane Wheatley,Y,ACUTE,"90","0","0","0",N,"0","0","0","0","0","0","0",2020/07/31 00:00:00+00,2019/10/16 00:00:00+00,2020/03/18 00:00:00+00
"105",254 Main St,Cadiz,Trigg,Trigg County Hospital Inc,270-522-3215,Y,COT/GIS,KIM ANNESS,2020/03/18 00:00:00+00,GPS LOCATIONS FOR FRONT DOOR COLLECTED BY CHFS STATE HEALTH OPERATIONS CENTER,,CHFS OFFICE OF INSPECTOR GENERAL,,,"600055",Trigg County Hospital Inc.,"42211",John Sumner,N,CAH,"0","0","25","0",N,"0","0","0","0","0","0","0",2020/11/30 00:00:00+00,2019/10/16 00:00:00+00,2020/03/18 00:00:00+00
"106",4604 U.S. Hwy 60W,Morganfield,Union,Community United Methodist Hospital Inc,270-389-3030,Y,COT/GIS,KIM ANNESS,2020/03/18 00:00:00+00,GPS LOCATIONS FOR FRONT DOOR COLLECTED BY CHFS STATE HEALTH OPERATIONS CENTER,,CHFS OFFICE OF INSPECTOR GENERAL,,,"600057",Methodist Hospital Union County,"42437",Lynn  Steinwachs,Y,CAH,"0","0","25","0",N,"0","0","0","0","0","0","0",2020/12/31 00:00:00+00,2019/10/16 00:00:00+00,2020/03/18 00:00:00+00
"107",250 Park St #B-14,Bowling Green,Warren,B G Warren County Comm Hosp Corp,270-745-1000,N,COT/GIS,KIM ANNESS,2020/03/18 00:00:00+00,GPS LOCATIONS FOR FRONT DOOR COLLECTED BY CHFS STATE HEALTH OPERATIONS CENTER,,CHFS OFFICE OF INSPECTOR GENERAL,,,"100404",The Medical Center at Bowling Green,"42101",Connie Smith,Y,ACUTE,"313","0","0","0",N,"24","0","0","0","0","0","0",2021/02/28 00:00:00+00,2019/10/16 00:00:00+00,2020/03/18 00:00:00+00
"108",1035 Porter Pike,Bowling Green,Warren,"UHS of Bowling Green, LLC",270-843-1199,N,COT/GIS,KIM ANNESS,2020/03/18 00:00:00+00,GPS LOCATIONS FOR FRONT DOOR COLLECTED BY CHFS STATE HEALTH OPERATIONS CENTER,,CHFS OFFICE OF INSPECTOR GENERAL,,,"100564",Rivendell Behavioral Health Services,"42103",Matt  Ours,Y,PSY,"0","0","0","0",N,"72","0","0","53","0","0","0",2021/01/31 00:00:00+00,2019/10/16 00:00:00+00,2020/03/18 00:00:00+00
"109",1300 Campbell Ln,Bowling Green,Warren,"1300 Campbell Lane Operating Company, LLC",270-782-6900,N,COT/GIS,KIM ANNESS,2020/03/18 00:00:00+00,GPS LOCATIONS FOR FRONT DOOR COLLECTED BY CHFS STATE HEALTH OPERATIONS CENTER,,CHFS OFFICE OF INSPECTOR GENERAL,,,"100655",Southern Kentucky Rehabilitation Hospital,"42104",Stuart Locke,Y,REHAB,"0","0","0","0",N,"0","0","0","0","0","0","60",2020/08/31 00:00:00+00,2019/10/16 00:00:00+00,2020/03/18 00:00:00+00
"110",1301 N Race St,Glasgow,Warren,"T J Samson Community Hospital, Inc.",270-651-4159,N,COT/GIS,KIM ANNESS,2020/03/18 00:00:00+00,GPS LOCATIONS FOR FRONT DOOR COLLECTED BY CHFS STATE HEALTH OPERATIONS CENTER,,CHFS OFFICE OF INSPECTOR GENERAL,,,"100016",T J Samson Community Hospital,"42141",Bud Wethington,Y,ACUTE,"180","0","0","0",N,"0","0","0","0","0","0","0",2020/12/31 00:00:00+00,2019/10/16 00:00:00+00,2020/03/18 00:00:00+00
"111",1801 Ashley Circle,Bowling Green,Warren,Greenview Hospital Inc,270-793-1000,Y,COT/GIS,KIM ANNESS,2020/03/18 00:00:00+00,GPS LOCATIONS FOR FRONT DOOR COLLECTED BY CHFS STATE HEALTH OPERATIONS CENTER,,CHFS OFFICE OF INSPECTOR GENERAL,,,"100406",TriStar Greenview Regional Hospital,"42104",Mike Sherrod,Y,ACUTE,"211","0","0","0",Y,"0","0","0","0","0","0","0",2021/02/28 00:00:00+00,2019/10/16 00:00:00+00,2020/03/18 00:00:00+00
"112",166 Hospital St,Monticello,Wayne,"Wayne County Hospital, Inc.",606-348-9343,Y,COT/GIS,KIM ANNESS,2020/03/18 00:00:00+00,GPS LOCATIONS FOR FRONT DOOR COLLECTED BY CHFS STATE HEALTH OPERATIONS CENTER,,CHFS OFFICE OF INSPECTOR GENERAL,,,"600074","Wayne County Hospital, Inc.","42633",Joe Murrell,Y,CAH,"0","0","25","0",N,"0","0","0","0","0","0","0",2020/03/31 00:00:00+00,2019/10/16 00:00:00+00,2020/03/18 00:00:00+00
"113",360 Amsden Ave,Versailles,Woodford,Woodford  Hospital Llc,859-879-2300,Y,COT/GIS,KIM ANNESS,2020/03/18 00:00:00+00,GPS LOCATIONS FOR FRONT DOOR COLLECTED BY CHFS STATE HEALTH OPERATIONS CENTER,,CHFS OFFICE OF INSPECTOR GENERAL,,,"600059",Bluegrass Community Hospital,"40383",Tommy Haggard,N,CAH,"0","0","25","0",N,"0","0","0","0","0","0","0",2020/12/31 00:00:00+00,2019/10/16 00:00:00+00,2020/03/18 00:00:00+00
"114",910 Wallace Avenue,Leitchfield,Grayson,Grayson County Hospital Foundation Inc,270-259-9400,Y,COT/GIS,KEVIN HOGUE,2020/07/16 00:00:00+00,GPS LOCATIONS FOR FRONT DOOR COLLECTED BY CHFS STATE HEALTH OPERATIONS CENTER,,CHFS OFFICE OF INSPECTOR GENERAL,,,"100151",Twin Lakes Regional Medical Center,"42754",Wayne Meriwether,Y,ACUTE,"75","0","0","0",N,"0","0","0","0","0","0","0",2020/01/31 00:00:00+00,2020/07/16 00:00:00+00,2020/07/16 00:00:00+00
"115",1612 Dawkins Road,Lagrange,Oldham,Commonwealth of KY,502-222-7161,N,COT/GIS,LUCAS GRAHAM,2023/12/08 00:00:00+00,ESTIMATED LOCATION OF FRONT OF DOOR FROM AERIAL IMAGERY,,CHFS OFFICE OF INSPECTOR GENERAL,,,"100528",Kentucky Correctional Psychiatric Center,"40031",Greg Taylor,N,PSY,"0","0","0","0","0","97",,"0","0","0","0","0",2024/01/31 00:00:00+00,2023/12/08 00:00:00+00,2023/12/08 00:00:00+00
